OBJECT_NAME,OBJECT_ID,EPOCH,MEAN_MOTION,ECCENTRICITY,INCLINATION,RA_OF_ASC_NODE,ARG_OF_PERICENTER,MEAN_ANOMALY,EPHEMERIS_TYPE,CLASSIFICATION_TYPE,NORAD_CAT_ID,ELEMENT_SET_NO,REV_AT_EPOCH,BSTAR,MEAN_MOTION_DOT,MEAN_MOTION_DDOT
FOX-1CLIFF (AO-95),2018-099N,2026-07-15T02:59:13.154784,15.27272459,.0007249,97.4371,256.2762,240.1261,119.9258,0,U,43770,999,41748,.24321E-3,.6428E-4,0
RANGE-A,2018-099R,2026-07-15T01:52:24.343392,15.13607177,.0008674,97.3951,237.8427,245.5474,114.4853,0,U,43773,999,41671,.13782E-3,.2412E-4,0
SNUSAT-2,2018-099AA,2026-07-15T01:50:43.804896,15.22238962,.001019,97.4044,249.0368,188.1479,171.9594,0,U,43782,999,41727,.19993E-3,.4533E-4,0
SNUGLITE,2018-099AC,2026-07-15T02:47:22.819776,15.27757211,.0003627,97.3852,250.1296,159.8729,200.2654,0,U,43784,999,41758,.24651E-3,.6611E-4,0
ITASAT,2018-099AE,2026-07-15T03:30:16.767360,15.19381680,.0010869,97.4013,247.1033,250.6070,109.3990,0,U,43786,999,41715,.17427E-3,.3624E-4,0
EAGLET-I,2018-099AJ,2026-07-15T02:14:50.732736,15.13133242,.0009607,97.4217,245.0241,244.7240,115.2996,0,U,43790,999,41655,.13248E-3,.2285E-4,0
ESEO,2018-099AL,2026-07-15T01:14:19.397760,15.04321844,.0010917,97.3957,232.2453,234.3147,125.7064,0,U,43792,999,41599,.1053E-3,.1411E-4,0
THEA,2018-099AQ,2026-07-15T03:49:14.378016,15.35935974,.0008025,97.4432,266.1397,174.4122,185.7213,0,U,43796,999,41698,.31045E-3,.10791E-3,0
ASTROCAST 0.1,2018-099AS,2026-07-15T03:23:32.317728,15.51450532,.000558,97.4371,275.5483,129.5554,230.6191,0,U,43798,999,41876,.40186E-3,.23658E-3,0
JY1SAT (JO-97),2018-099AX,2026-07-15T03:26:29.419584,15.34518700,.0006912,97.4123,259.0882,158.3405,201.8132,0,U,43803,999,41791,.29989E-3,.9957E-4,0
SUOMI-100,2018-099AY,2026-07-15T03:44:25.575648,15.29031975,.0010516,97.4172,256.4544,172.3651,187.7751,0,U,43804,999,41769,.24361E-3,.6802E-4,0
CENTAURI-1,2018-099BD,2026-07-15T02:48:27.641376,15.16624225,.0012981,97.4207,247.2388,225.2643,134.7534,0,U,43809,999,41673,.14266E-3,.2727E-4,0
GLOBAL-2,2018-099BG,2026-07-15T01:30:17.192736,15.08825093,.0007407,97.3549,231.4170,67.1895,293.0115,0,U,43812,999,41611,.10464E-3,.1587E-4,0
SEAHAWK-1,2018-099BQ,2026-07-15T02:59:39.613056,15.23238139,.0007847,97.3943,248.1897,198.5557,161.5395,0,U,43820,999,41678,.19288E-3,.45E-4,0
SAUDISAT 5A,2018-102A,2026-07-15T04:33:25.084224,15.28321059,.001043,97.3053,257.2335,43.7379,316.4685,0,U,43831,999,41995,.11261E-3,.3037E-4,0
SAUDISAT 5B,2018-102C,2026-07-15T04:53:58.070976,15.28564255,.0011211,97.3162,260.3680,45.0986,315.1162,0,U,43833,999,42007,.10838E-3,.2942E-4,0
ISAT,2018-111D,2026-07-14T19:05:31.255296,15.70780866,.00078304,97.5857,133.2539,140.0601,220.1238,0,U,43879,999,41549,.64197269E-3,.80188E-3,0
UWE-4,2018-111E,2026-07-14T18:29:30.308352,15.47799907,.00060919,97.5848,125.4664,196.0954,164.0103,0,U,43880,999,41504,.4060488E-3,.21018E-3,0
D-STAR ONE (SPARROW),2018-111F,2026-07-14T19:41:05.648064,15.84849665,.00083406,97.6086,139.4962,139.8454,220.3433,0,U,43881,999,41573,.78412158E-3,.185387E-2,0
JILIN-1 09,2019-005B,2026-07-15T05:06:04.231872,15.20740936,.0002353,97.4749,290.9404,36.6120,323.5275,0,U,43943,999,41340,.11679E-3,.25E-4,0
JILIN-1 10,2019-005E,2026-07-15T04:39:36.315648,15.26006585,.0008566,97.4800,295.0049,169.7909,190.3504,0,U,43946,999,41358,.12899E-3,.3245E-4,0
EGYPTSAT-A (MISRSAT-A),2019-008A,2026-07-15T03:26:04.842240,14.72336128,.0001719,98.0188,260.5283,94.3964,265.7440,0,U,44047,999,39735,.4558E-4,.239E-5,0
EMISAT,2019-018A,2026-07-15T03:29:01.232160,14.43649067,.0019343,98.4639,254.7893,131.4430,228.8426,0,U,44078,999,38409,.11076E-4,-.6E-7,0
JILIN-1 GAOFEN 3A,2019-032C,2026-07-15T04:07:03.514080,15.33189535,.0004748,44.9722,202.8517,103.9514,256.1899,0,U,44312,999,39213,.18817E-3,.5844E-4,0
WT 1B,2019-032G,2026-07-15T04:34:08.901984,15.27728800,.0008361,44.9736,268.0241,35.7573,324.3868,0,U,44316,999,39136,.25378E-3,.6718E-4,0
PROX-1,2019-036A,2026-07-14T13:32:32.954784,14.91240089,.0005951,23.9954,291.2841,1.0168,359.0343,0,U,44339,999,37756,.61082E-3,.6514E-4,0
NPSAT1,2019-036B,2026-07-14T22:16:37.041600,14.74820760,.0007419,23.9996,37.0454,163.4955,196.5783,0,U,44340,999,37659,.39563E-3,.2959E-4,0
FORMOSAT 7-3,2019-036E,2026-07-14T19:22:11.632512,15.09992955,.00001445,24.0000,348.4178,225.7106,134.3386,0,U,44343,999,38742,.13444411E-3,.2587E-4,0
FORMOSAT 7-1,2019-036L,2026-07-15T02:48:34.588800,14.96611750,.0000969,23.9965,204.0828,129.8047,230.2539,0,U,44349,999,38884,.84693E-4,.1292E-4,0
