FOX-1CLIFF (AO-95)      
1 43770U 18099N   26196.12445781  .00006428  00000+0  24321-3 0  9998
2 43770  97.4371 256.2762 0007249 240.1261 119.9258 15.27272459417485
RANGE-A                 
1 43773U 18099R   26196.07805953  .00002412  00000+0  13782-3 0  9994
2 43773  97.3951 237.8427 0008674 245.5474 114.4853 15.13607177416712
SNUSAT-2                
1 43782U 18099AA  26196.07689589  .00004533  00000+0  19993-3 0  9995
2 43782  97.4044 249.0368 0010190 188.1479 171.9594 15.22238962417272
SNUGLITE                
1 43784U 18099AC  26196.11623634  .00006611  00000+0  24651-3 0  9997
2 43784  97.3852 250.1296 0003627 159.8729 200.2654 15.27757211417588
ITASAT                  
1 43786U 18099AE  26196.14602740  .00003624  00000+0  17427-3 0  9991
2 43786  97.4013 247.1033 0010869 250.6070 109.3990 15.19381680417159
EAGLET-I                
1 43790U 18099AJ  26196.09364274  .00002285  00000+0  13248-3 0  9996
2 43790  97.4217 245.0241 0009607 244.7240 115.2996 15.13133242416557
ESEO                    
1 43792U 18099AL  26196.05161340  .00001411  00000+0  10530-3 0  9994
2 43792  97.3957 232.2453 0010917 234.3147 125.7064 15.04321844415995
THEA                    
1 43796U 18099AQ  26196.15919419  .00010791  00000+0  31045-3 0  9992
2 43796  97.4432 266.1397 0008025 174.4122 185.7213 15.35935974416986
ASTROCAST 0.1           
1 43798U 18099AS  26196.14134627  .00023658  00000+0  40186-3 0  9995
2 43798  97.4371 275.5483 0005580 129.5554 230.6191 15.51450532418766
JY1SAT (JO-97)          
1 43803U 18099AX  26196.14339606  .00009957  00000+0  29989-3 0  9990
2 43803  97.4123 259.0882 0006912 158.3405 201.8132 15.34518700417917
SUOMI-100               
1 43804U 18099AY  26196.15585157  .00006802  00000+0  24361-3 0  9991
2 43804  97.4172 256.4544 0010516 172.3651 187.7751 15.29031975417694
CENTAURI-1              
1 43809U 18099BD  26196.11698659  .00002727  00000+0  14266-3 0  9999
2 43809  97.4207 247.2388 0012981 225.2643 134.7534 15.16624225416736
GLOBAL-2                
1 43812U 18099BG  26196.06269899  .00001587  00000+0  10464-3 0  9996
2 43812  97.3549 231.4170 0007407  67.1895 293.0115 15.08825093416114
SEAHAWK-1               
1 43820U 18099BQ  26196.12476404  .00004500  00000+0  19288-3 0  9995
2 43820  97.3943 248.1897 0007847 198.5557 161.5395 15.23238139416782
SAUDISAT 5A             
1 43831U 18102A   26196.18987366  .00003037  00000+0  11261-3 0  9999
2 43831  97.3053 257.2335 0010430  43.7379 316.4685 15.28321059419953
SAUDISAT 5B             
1 43833U 18102C   26196.20414434  .00002942  00000+0  10838-3 0  9998
2 43833  97.3162 260.3680 0011211  45.0986 315.1162 15.28564255420079
ISAT                    
1 43879U 18111D   26195.79550064  .00080188  00000+0  64197-3 0  9996
2 43879  97.5857 133.2539 0007830 140.0601 220.1238 15.70780866415499
UWE-4                   
1 43880U 18111E   26195.77048968  .00021018  00000+0  40605-3 0  9996
2 43880  97.5848 125.4664 0006091 196.0954 164.0103 15.47799907415041
D-STAR ONE (SPARROW)    
1 43881U 18111F   26195.82020426  .00185387  00000+0  78412-3 0  9999
2 43881  97.6086 139.4962 0008340 139.8454 220.3433 15.84849665415738
JILIN-1 09              
1 43943U 19005B   26196.21254898  .00002500  00000+0  11679-3 0  9994
2 43943  97.4749 290.9404 0002353  36.6120 323.5275 15.20740936413400
JILIN-1 10              
1 43946U 19005E   26196.19417032  .00003245  00000+0  12899-3 0  9997
2 43946  97.4800 295.0049 0008566 169.7909 190.3504 15.26006585413582
EGYPTSAT-A (MISRSAT-A)  
1 44047U 19008A   26196.14311160  .00000239  00000+0  45580-4 0  9997
2 44047  98.0188 260.5283 0001719  94.3964 265.7440 14.72336128397356
EMISAT                  
1 44078U 19018A   26196.14515315 -.00000006  00000+0  11076-4 0  9996
2 44078  98.4639 254.7893 0019343 131.4430 228.8426 14.43649067384098
JILIN-1 GAOFEN 3A       
1 44312U 19032C   26196.17156845  .00005844  00000+0  18817-3 0  9998
2 44312  44.9722 202.8517 0004748 103.9514 256.1899 15.33189535392136
WT 1B                   
1 44316U 19032G   26196.19038081  .00006718  00000+0  25378-3 0  9996
2 44316  44.9736 268.0241 0008361  35.7573 324.3868 15.27728800391360
PROX-1                  
1 44339U 19036A   26195.56427031  .00006514  00000+0  61082-3 0  9998
2 44339  23.9954 291.2841 0005951   1.0168 359.0343 14.91240089377563
NPSAT1                  
1 44340U 19036B   26195.92820650  .00002959  00000+0  39563-3 0  9992
2 44340  23.9996  37.0454 0007419 163.4955 196.5783 14.74820760376590
FORMOSAT 7-3            
1 44343U 19036E   26195.80707908  .00002587  00000+0  13444-3 0  9999
2 44343  24.0000 348.4178 0000144 225.7106 134.3386 15.09992955387429
FORMOSAT 7-1            
1 44349U 19036L   26196.11706700  .00001292  00000+0  84693-4 0  9996
2 44349  23.9965 204.0828 0000969 129.8047 230.2539 14.96611750388844
